{"type": "FeatureCollection", "features": [ {"type": "Feature", "properties": {"norad_id": 39620, "name": "COSMOS 2492 (754)", "group": "gnss", "lat": 1.2958269120063017, "lon": 139.88578885552906, "alt_km": 19154.549877623507, "timestamp": "2025-12-06T05:40:09.483273+00:00", "meta": {"OBJECT_NAME": "COSMOS 2492 (754)", "OBJECT_ID": "2014-012A", "EPOCH": "2025-12-02T17:14:30.403680", "MEAN_MOTION": 2.13103072, "ECCENTRICITY": 0.00141646, "INCLINATION": 65.4134, "RA_OF_ASC_NODE": 320.6107, "ARG_OF_PERICENTER": 311.0276, "MEAN_ANOMALY": 48.8557, "EPHEMERIS_TYPE": 0, "CLASSIFICATION_TYPE": "U", "NORAD_CAT_ID": 39620, "ELEMENT_SET_NO": 999, "REV_AT_EPOCH": 9105, "BSTAR": 0, "MEAN_MOTION_DOT": -3.6e-07, "MEAN_MOTION_DDOT": 0}, "tle": {"line1": "1 39620U 14012A   25336.71840745 -.00000036  00000+0  00000+0 0  9991", "line2": "2 39620  65.4134 320.6107 0014164 311.0276  48.8557  2.13103072 91051"}}, "geometry": {"type": "Point", "coordinates": [139.88578885552906, 1.2958269120063017]}}, {"type": "Feature", "properties": {"norad_id": 39635, "name": "IRNSS-1B", "group": "gnss", "lat": -13.2344929447174, "lon": -141.5116083849533, "alt_km": 35850.066284291956, "timestamp": "2025-12-06T05:40:09.483285+00:00", "meta": {"OBJECT_NAME": "IRNSS-1B", "OBJECT_ID": "2014-017A", "EPOCH": "2025-12-04T19:28:38.496288", "MEAN_MOTION": 1.00275997, "ECCENTRICITY": 0.0017633, "INCLINATION": 28.8387, "RA_OF_ASC_NODE": 243.7276, "ARG_OF_PERICENTER": 183.5453, "MEAN_ANOMALY": 353.8193, "EPHEMERIS_TYPE": 0, "CLASSIFICATION_TYPE": "U", "NORAD_CAT_ID": 39635, "ELEMENT_SET_NO": 999, "REV_AT_EPOCH": 4284, "BSTAR": 0, "MEAN_MOTION_DOT": 1.26e-06, "MEAN_MOTION_DDOT": 0}, "tle": {"line1": "1 39635U 14017A   25338.81155667  .00000126  00000+0  00000+0 0  9996", "line2": "2 39635  28.8387 243.7276 0017633 183.5453 353.8193  1.00275997 42844"}}, "geometry": {"type": "Point", "coordinates": [-141.5116083849533, -13.2344929447174]}}, {"type": "Feature", "properties": {"norad_id": 39727, "name": "LUCH 5V (SDCM/PRN 141)", "group": "gnss", "lat": -0.3082408902245837, "lon": -104.9349062373448, "alt_km": 35767.848087306396, "timestamp": "2025-12-06T05:40:09.483298+00:00", "meta": {"OBJECT_NAME": "LUCH 5V (SDCM/PRN 141)", "OBJECT_ID": "2014-023A", "EPOCH": "2025-12-05T07:17:57.773760", "MEAN_MOTION": 1.00271195, "ECCENTRICITY": 0.0004578, "INCLINATION": 4.6497, "RA_OF_ASC_NODE": 71.6022, "ARG_OF_PERICENTER": 200.6188, "MEAN_ANOMALY": 6.4113, "EPHEMERIS_TYPE": 0, "CLASSIFICATION_TYPE": "U", "NORAD_CAT_ID": 39727, "ELEMENT_SET_NO": 999, "REV_AT_EPOCH": 4241, "BSTAR": 0, "MEAN_MOTION_DOT": -2.6e-06, "MEAN_MOTION_DDOT": 0}, "tle": {"line1": "1 39727U 14023A   25339.30414090 -.00000260  00000+0  00000+0 0  9998", "line2": "2 39727   4.6497  71.6022 0004578 200.6188   6.4113  1.00271195 42419"}}, "geometry": {"type": "Point", "coordinates": [-104.9349062373448, -0.3082408902245837]}}, {"type": "Feature", "properties": {"norad_id": 39741, "name": "GPS BIIF-6  (PRN 06)", "group": "gnss", "lat": 15.499243196012824, "lon": 148.47573962626322, "alt_km": 20275.67343511363, "timestamp": "2025-12-06T05:40:09.483309+00:00", "meta": {"OBJECT_NAME": "GPS BIIF-6  (PRN 06)", "OBJECT_ID": "2014-026A", "EPOCH": "2025-12-04T12:23:41.363808", "MEAN_MOTION": 2.0056177, "ECCENTRICITY": 0.003895, "INCLINATION": 56.5867, "RA_OF_ASC_NODE": 339.0964, "ARG_OF_PERICENTER": 318.2284, "MEAN_ANOMALY": 41.4951, "EPHEMERIS_TYPE": 0, "CLASSIFICATION_TYPE": "U", "NORAD_CAT_ID": 39741, "ELEMENT_SET_NO": 999, "REV_AT_EPOCH": 8463, "BSTAR": 0, "MEAN_MOTION_DOT": -7e-07, "MEAN_MOTION_DDOT": 0}, "tle": {"line1": "1 39741U 14026A   25338.51645097 -.00000070  00000+0  00000+0 0  9991", "line2": "2 39741  56.5867 339.0964 0038950 318.2284  41.4951  2.00561770 84633"}}, "geometry": {"type": "Point", "coordinates": [148.47573962626322, 15.499243196012824]}}, {"type": "Feature", "properties": {"norad_id": 40001, "name": "COSMOS 2500 (755)", "group": "gnss", "lat": 41.2579982409048, "lon": -16.001859414089573, "alt_km": 19145.713379581703, "timestamp": "2025-12-06T05:40:09.483321+00:00", "meta": {"OBJECT_NAME": "COSMOS 2500 (755)", "OBJECT_ID": "2014-032A", "EPOCH": "2025-12-04T07:09:49.504896", "MEAN_MOTION": 2.13106037, "ECCENTRICITY": 0.0008267, "INCLINATION": 65.3482, "RA_OF_ASC_NODE": 320.3199, "ARG_OF_PERICENTER": 219.122, "MEAN_ANOMALY": 140.8171, "EPHEMERIS_TYPE": 0, "CLASSIFICATION_TYPE": "U", "NORAD_CAT_ID": 40001, "ELEMENT_SET_NO": 999, "REV_AT_EPOCH": 8930, "BSTAR": 0, "MEAN_MOTION_DOT": -4.5e-07, "MEAN_MOTION_DDOT": 0}, "tle": {"line1": "1 40001U 14032A   25338.29848964 -.00000045  00000+0  00000+0 0  9994", "line2": "2 40001  65.3482 320.3199 0008267 219.1220 140.8171  2.13106037 89307"}}, "geometry": {"type": "Point", "coordinates": [-16.001859414089573, 41.2579982409048]}}, {"type": "Feature", "properties": {"norad_id": 40105, "name": "GPS BIIF-7  (PRN 09)", "group": "gnss", "lat": 54.34581140961391, "lon": -159.20096221468046, "alt_km": 20093.64785207327, "timestamp": "2025-12-06T05:40:09.483332+00:00", "meta": {"OBJECT_NAME": "GPS BIIF-7  (PRN 09)", "OBJECT_ID": "2014-045A", "EPOCH": "2025-12-03T14:34:35.183424", "MEAN_MOTION": 2.00571854, "ECCENTRICITY": 0.00329245, "INCLINATION": 55.2235, "RA_OF_ASC_NODE": 96.2633, "ARG_OF_PERICENTER": 119.6263, "MEAN_ANOMALY": 240.6737, "EPHEMERIS_TYPE": 0, "CLASSIFICATION_TYPE": "U", "NORAD_CAT_ID": 40105, "ELEMENT_SET_NO": 999, "REV_AT_EPOCH": 8215, "BSTAR": 0, "MEAN_MOTION_DOT": -7e-08, "MEAN_MOTION_DDOT": 0}, "tle": {"line1": "1 40105U 14045A   25337.60735166 -.00000007  00000+0  00000+0 0  9994", "line2": "2 40105  55.2235  96.2633 0032924 119.6263 240.6737  2.00571854 82158"}}, "geometry": {"type": "Point", "coordinates": [-159.20096221468046, 54.34581140961391]}}, {"type": "Feature", "properties": {"norad_id": 40128, "name": "GSAT0201 (GALILEO 5)", "group": "gnss", "lat": -34.378082419675735, "lon": 137.63949751230558, "alt_km": 18564.616365649697, "timestamp": "2025-12-06T05:40:09.483344+00:00", "meta": {"OBJECT_NAME": "GSAT0201 (GALILEO 5)", "OBJECT_ID": "2014-050A", "EPOCH": "2025-11-28T09:00:06.762528", "MEAN_MOTION": 1.85519533, "ECCENTRICITY": 0.16464881, "INCLINATION": 49.0938, "RA_OF_ASC_NODE": 281.6492, "ARG_OF_PERICENTER": 171.7362, "MEAN_ANOMALY": 191.3851, "EPHEMERIS_TYPE": 0, "CLASSIFICATION_TYPE": "U", "NORAD_CAT_ID": 40128, "ELEMENT_SET_NO": 999, "REV_AT_EPOCH": 7459, "BSTAR": 0, "MEAN_MOTION_DOT": -4.8e-07, "MEAN_MOTION_DDOT": 0}, "tle": {"line1": "1 40128U 14050A   25332.37507827 -.00000048  00000+0  00000+0 0  9990", "line2": "2 40128  49.0938 281.6492 1646488 171.7362 191.3851  1.85519533 74599"}}, "geometry": {"type": "Point", "coordinates": [137.63949751230558, -34.378082419675735]}}, {"type": "Feature", "properties": {"norad_id": 40129, "name": "GSAT0202 (GALILEO 6)", "group": "gnss", "lat": 21.935526129630126, "lon": -59.21045570600365, "alt_km": 24969.336214519313, "timestamp": "2025-12-06T05:40:09.483356+00:00", "meta": {"OBJECT_NAME": "GSAT0202 (GALILEO 6)", "OBJECT_ID": "2014-050B", "EPOCH": "2025-12-02T22:38:17.581056", "MEAN_MOTION": 1.8552031, "ECCENTRICITY": 0.1647571, "INCLINATION": 49.1042, "RA_OF_ASC_NODE": 280.5465, "ARG_OF_PERICENTER": 172.6616, "MEAN_ANOMALY": 190.1192, "EPHEMERIS_TYPE": 0, "CLASSIFICATION_TYPE": "U", "NORAD_CAT_ID": 40129, "ELEMENT_SET_NO": 999, "REV_AT_EPOCH": 7684, "BSTAR": 0, "MEAN_MOTION_DOT": -5.9e-07, "MEAN_MOTION_DDOT": 0}, "tle": {"line1": "1 40129U 14050B   25336.94325904 -.00000059  00000+0  00000+0 0  9994", "line2": "2 40129  49.1042 280.5465 1647571 172.6616 190.1192  1.85520310 76841"}}, "geometry": {"type": "Point", "coordinates": [-59.21045570600365, 21.935526129630126]}}, {"type": "Feature", "properties": {"norad_id": 40269, "name": "IRNSS-1C", "group": "gnss", "lat": 2.9240351389574437, "lon": -116.49576154802632, "alt_km": 35850.63545821976, "timestamp": "2025-12-06T05:40:09.483368+00:00", "meta": {"OBJECT_NAME": "IRNSS-1C", "OBJECT_ID": "2014-061A", "EPOCH": "2025-12-04T21:02:51.719136", "MEAN_MOTION": 1.00268988, "ECCENTRICITY": 0.0017845, "INCLINATION": 6.0209, "RA_OF_ASC_NODE": 92.7792, "ARG_OF_PERICENTER": 2.6811, "MEAN_ANOMALY": 17.152, "EPHEMERIS_TYPE": 0, "CLASSIFICATION_TYPE": "U", "NORAD_CAT_ID": 40269, "ELEMENT_SET_NO": 999, "REV_AT_EPOCH": 4074, "BSTAR": 0, "MEAN_MOTION_DOT": -1.5e-06, "MEAN_MOTION_DDOT": 0}, "tle": {"line1": "1 40269U 14061A   25338.87698749 -.00000150  00000+0  00000+0 0  9997", "line2": "2 40269   6.0209  92.7792 0017845   2.6811  17.1520  1.00268988 40742"}}, "geometry": {"type": "Point", "coordinates": [-116.49576154802632, 2.9240351389574437]}}, {"type": "Feature", "properties": {"norad_id": 40294, "name": "GPS BIIF-8  (PRN 03)", "group": "gnss", "lat": -6.673884225857701, "lon": -137.2015925699651, "alt_km": 20260.086791756697, "timestamp": "2025-12-06T05:40:09.483379+00:00", "meta": {"OBJECT_NAME": "GPS BIIF-8  (PRN 03)", "OBJECT_ID": "2014-068A", "EPOCH": "2025-12-03T11:38:05.638272", "MEAN_MOTION": 2.00564094, "ECCENTRICITY": 0.00608191, "INCLINATION": 56.851, "RA_OF_ASC_NODE": 38.5042, "ARG_OF_PERICENTER": 69.3788, "MEAN_ANOMALY": 291.3251, "EPHEMERIS_TYPE": 0, "CLASSIFICATION_TYPE": "U", "NORAD_CAT_ID": 40294, "ELEMENT_SET_NO": 999, "REV_AT_EPOCH": 8128, "BSTAR": 0, "MEAN_MOTION_DOT": -6.5e-07, "MEAN_MOTION_DDOT": 0}, "tle": {"line1": "1 40294U 14068A   25337.48478748 -.00000065  00000+0  00000+0 0  9998", "line2": "2 40294  56.8510  38.5042 0060819  69.3788 291.3251  2.00564094 81285"}}, "geometry": {"type": "Point", "coordinates": [-137.2015925699651, -6.673884225857701]}}]}